STARLINK-34306          
1 64259U 25120D   26068.51913522  .00025410  00000+0  86737-3 0  9991
2 64259  53.1601 117.2262 0001353  76.6066 283.5085 15.30190625 43840
2025-313BC              
1 67298U 25313BC  26068.18968176  .00075331  00000+0  26410-2 0  9997
2 67298  97.3985 144.8110 0008478 328.9209  31.1528 15.29126358  7890
